FLOCK 4X-6              
1 51043U 22002BM  22043.19537839  .00008995  00000+0  52166-3 0  9998
2 51043  97.5047 112.3768 0010688 136.4264 223.7813 15.12348033  4475
IRIS-A                  
1 51044U 22002BN  22043.12913875  .00004612  00000+0  26952-3 0  9996
2 51044  97.4994 112.2851 0010661 131.2864 228.9287 15.12332578  4466
FLOCK 4X-28             
1 51045U 22002BP  22042.86366461  .00005315  00000+0  30952-3 0  9996
2 51045  97.5019 112.0345 0011209 129.9500 230.2717 15.12389474  4429
VZLUSAT-3             
1 51046U 22002BQ  22042.66491392  .00006645  00000+0  38579-3 0  9997
2 51046  97.5054 111.8613 0010875 140.2490 219.9540 15.12405523  4394
FLOCK 4X-9              
1 51047U 22002BR  22043.19370725  .00008804  00000+0  50923-3 0  9999
2 51047  97.5063 112.3835 0011416 140.0077 220.1996 15.12441901  4476
FLOCK 4X-35             
1 51048U 22002BS  22042.86328461  .00005767  00000+0  33542-3 0  9996
2 51048  97.4997 112.0286 0010859 134.4305 225.7816 15.12398379  4427
FLOCK 4X-11             
1 51049U 22002BT  22043.19604291  .00005628  00000+0  32838-3 0  9995
2 51049  97.5007 112.3563 0010576 136.9159 223.2901 15.12296952  4479
MDASAT-1B               
1 51050U 22002BU  22042.86568634  .00005594  00000+0  32656-3 0  9990
2 51050  97.5064 112.0583 0010538 141.5695 218.6288 15.12285514  4421
KEPLER-19               
1 51051U 22002BV  22042.86548562  .00002881  00000+0  17012-3 0  9994
2 51051  97.5007 112.0299 0010370 134.5665 225.6414 15.12272590  4425
FLOCK 4X-40             
1 51052U 22002BW  22042.86645994  .00007411  00000+0  43184-3 0  9995
2 51052  97.5006 112.0284 0010126 136.7383 223.4644 15.12241004  4426
HYPSO-1                 
1 51053U 22002BX  22042.93466034  .00003933  00000+0  23188-3 0  9997
2 51053  97.4970 112.0781 0009888 139.9203 220.2758 15.12109091  4438
LEMUR-2-MIRIWARI        
1 51054U 22002BY  22042.86704749  .00008887  00000+0  51667-3 0  9994
2 51054  97.5047 112.0472 0009808 140.4935 219.7012 15.12267922  4426
FLOCK 4X-33             
1 51055U 22002BZ  22042.73432994  .00009841  00000+0  57148-3 0  9992
2 51055  97.5057 111.9211 0010393 142.3540 217.8419 15.12274556  4400
FLOCK 4X-24             
1 51056U 22002CA  22043.13152466  .00003777  00000+0  22211-3 0  9996
2 51056  97.5013 112.2909 0010220 132.3781 227.8316 15.12221250  4462
KEPLER-16 (ASTRAEUS)    
1 51057U 22002CB  22042.86807171  .00007086  00000+0  41387-3 0  9998
2 51057  97.5016 112.0303 0009741 136.5333 223.6667 15.12177648  4427
LEMUR-2-DJIRANG         
1 51058U 22002CC  22042.86797702  .00008142  00000+0  47459-3 0  9997
2 51058  97.5030 112.0373 0009683 138.3640 221.8329 15.12204704  4426
KEPLER-17 (KARINA)      
1 51059U 22002CD  22043.19933963  .00006967  00000+0  40716-3 0  9998
2 51059  97.5035 112.3642 0010071 142.2089 217.9850 15.12160443  4479
ETV-A1                  
1 51060U 22002CE  22043.14509396  .00001458  00000+0  88588-4 0  9994
2 51060  97.5044 112.3142 0010737 143.9464 270.7963 15.11986752  4469
BRO-5                   
1 51061U 22002CF  22043.21509862  .00003189  00000+0  18913-3 0  9998
2 51061  97.5069 112.3899 0010413 145.3592 289.9136 15.12031634  4471
2022-002CG              
1 51062U 22002CG  22042.86141958  .00007284  00000+0  42083-3 0  9992
2 51062  97.4995 112.0283 0011185 130.8732 229.3470 15.12545335  4427
2022-002CH              
1 51063U 22002CH  22042.86146920  .00007333  00000+0  42367-3 0  9997
2 51063  97.4995 112.0280 0011177 130.7754 229.4449 15.12542786  4423
FLOCK 4X-4              
1 51064U 22002CJ  22042.86232561  .00006964  00000+0  40335-3 0  9997
2 51064  97.5015 112.0351 0011353 131.6254 228.5951 15.12472463  4420
FLOCK 4X-7              
1 51065U 22002CK  22042.73052520  .00005324  00000+0  30978-3 0  9990
2 51065  97.5047 111.9247 0010979 138.5464 221.6601 15.12421866  4405
FLOCK 4X-14             
1 51066U 22002CL  22042.86252306  .00005575  00000+0  32386-3 0  9992
2 51066  97.5077 112.0655 0011692 142.0942 218.1114 15.12448809  4426
DEWASAT-1               
1 51067U 22002CM  22043.14826966  .00003282  00000+0  19538-3 0  9991
2 51067  97.5012 112.2902 0009317 144.4085 271.3858 15.11881920  4462
2022-002CN              
1 51068U 22002CN  22042.74192659  .00003533  00000+0  21046-3 0  9998
2 51068  97.5036 111.9025 0009740 149.8709 210.3083 15.11804027  4403
2022-002CP              
1 51069U 22002CP  22042.72811979  .00007253  00000+0  41852-3 0  9990
2 51069  97.4980 111.8952 0011113 132.4423 227.7749 15.12595976  4409
ICEYE-X14               
1 51070U 22002CQ  22043.20021699  .00004140  00000+0  23843-3 0  9990
2 51070  97.5023 112.3923 0012925 133.7589 310.6477 15.12899429  4470
CAPELLA-8-WHITNEY       
1 51071U 22002CR  22042.91822046  .00018757  00000+0  10539-2 0  9999
2 51071  97.5037 112.1233 0012502 136.8314 223.3900 15.13284712  4430
CAPELLA-7-WHITNEY       
1 51072U 22002CS  22042.91800604  .00020100  00000+0  11282-2 0  9997
2 51072  97.5031 112.1254 0011745 139.5642 220.6465 15.13315253  4431
2022-002CT              
1 51073U 22002CT  22042.74926772  .00022663  00000+0  12029-2 0  9990
2 51073  97.5168 112.0984 0014572 167.8838 192.2748 15.15250292  4413
DELFI-PQ                
1 51074U 22002CU  22043.15151659  .00010950  00000+0  59274-3 0  9991
2 51074  97.5228 112.5044 0015004 163.3531 196.8196 15.14714630  4478
USA 320                 
1 51075U 22002CV  22042.71683746  .00009441  00000+0  54135-3 0  9994
2 51075  97.5027 111.9306 0012333 187.7226 172.3817 15.12725468  4404
2022-002CW              
1 51076U 22002CW  22042.89345139  .00005729  00000+0  31566-3 0  9993
2 51076  97.5027 112.1563 0015462 160.1714 200.0122 15.14295112  4437
USA 321                 
1 51077U 22002CX  22042.91416882  .00017871  00000+0  10209-2 0  9992
2 51077  97.5043 112.1310 0011567 196.9388 163.1458 15.12710085  4432
USA 322                 
1 51078U 22002CY  22042.45340726  .00015452  00000+0  88336-3 0  9995
2 51078  97.5048 111.6731 0011699 195.9449 164.1415 15.12714405  4368
USA 323                 
1 51079U 22002CZ  22042.78072690  .00017498  00000+0  99991-3 0  9995
2 51079  97.5047 112.0010 0011787 190.6464 169.4519 15.12701243  4415
2022-002DA              
1 51080U 22002DA  22042.42569204  .00007492  00000+0  40830-3 0  9991
2 51080  97.5241 111.7893 0014589 164.8377 195.3295 15.14593274  4365
2022-002DB              
1 51081U 22002DB  22042.69032619  .00007320  00000+0  39913-3 0  9996
2 51081  97.5233 112.0472 0014943 164.0437 196.1269 15.14581178  4402
2022-002DC              
1 51082U 22002DC  22042.44610507  .00013766  00000+0  76764-3 0  9994
2 51082  97.4933 111.6404 0013120 122.5789 237.6711 15.13618021  4369
2022-002DD              
1 51083U 22002DD  22043.13075427  .00006095  00000+0  35552-3 0  9995
2 51083  97.5006 112.2903 0010440 139.9755 220.2247 15.12278664  4467
DODONA                  
1 51084U 22002DE  22042.71810184  .00007486  00000+0  42245-3 0  9998
2 51084  97.5045 111.9333 0008718 127.7206 232.4816 15.13402675  4408
VZLUSAT-2               
1 51085U 22002DF  22043.14703750  .00002285  00000+0  13848-3 0  9996
2 51085  97.5029 112.3029 0015318 141.5303 277.1203 15.11487358  4465
LABSAT                  
1 51086U 22002DG  22043.25626218  .00004550  00000+0  25814-3 0  9995
2 51086  97.4964 112.4396 0008258 118.6086 282.4023 15.13423865  4485
STORK-1                 
1 51087U 22002DH  22043.27142917  .00005499  00000+0  32498-3 0  9996
2 51087  97.5085 112.4501 0014295 137.8600 266.4389 15.11804782  4488
STORK-2                 
1 51088U 22002DJ  22043.26165560  .00005324  00000+0  30445-3 0  9992
2 51088  97.4974 112.4316 0011060 119.9936 280.7913 15.13043546  4486
SW1FT                   
1 51089U 22002DK  22043.13803981  .00005777  00000+0  33651-3 0  9999
2 51089  97.5013 112.3187 0011047 130.8614 294.2561 15.12344165  4464
2022-003A               
1 51094U 22003A   22043.27215924  .00006930  00000+0  30971-3 0  9999
2 51094  44.9816  31.9835 0004298 102.0651 258.0722 15.22017188  4476
2022-003B               
1 51095U 22003B   22042.67450483  .00004803  00000+0  21639-3 0  9992
2 51095  44.9851  35.1316 0002489  80.6589 279.4572 15.22335201  4375
2022-003C               
1 51096U 22003C   22042.66927153  .00004796  00000+0  21440-3 0  9996
2 51096  44.9856  35.0955 0001703  57.8900 302.2139 15.22610700  4374
GEARRS-3                
1 51097U 22003D   22042.66766929  .00004817  00000+0  21473-3 0  9999
2 51097  44.9872  35.0896 0001617  46.7520 313.3490 15.22698453  4370
STORK-3                 
1 51098U 22003E   22043.24638189  .00010902  00000+0  45796-3 0  9997
2 51098  44.9896  31.7758 0002781 358.8657  16.6305 15.23618994  4469
LEMUR-2-KRYWE           
1 51099U 22003F   22042.97938113  .00009695  00000+0  40803-3 0  9998
2 51099  44.9924  33.1950 0003633 352.6063   7.4846 15.23668629  4426
STEAMSAT-2              
1 51100U 22003G   22043.24268112  .00014359  00000+0  59421-3 0  9996
2 51100  44.9909  31.7582 0002866 344.8373  30.7247 15.23903374  4457
LAUNCHERONE R/B         
1 51101U 22003H   22043.20616221  .00015262  00000+0  41923-3 0  9993
2 51101  45.0267  29.1248 0051645  16.2976 343.9557 15.35816482  4498
SHIYAN-13 (SY-13)       
1 51102U 22004A   22043.23582581  .00005748  00000+0  27265-3 0  9990
2 51102  98.6725 107.3226 0652247  70.0193 296.9993 14.19611894  3717
CZ-2D R/B               
1 51103U 22004B   22042.87549487  .00006395  00000+0  29896-3 0  9999
2 51103  98.6726 106.9826 0651668  70.7719 296.2772 14.20050293  3627
STARLINK-3366           
1 51104U 22005A   22042.91668981 -.00061373  00000+0 -43534-3 0  9991
2 51104  53.2169 156.3466 0002080  20.1358  36.6118 15.73235651  5074
STARLINK-3350           
1 51105U 22005B   22043.25001157 -.00106634  00000+0 -76510-3 0  9996
2 51105  53.2163 154.7083 0002124  23.9660 114.6794 15.73194233  5125
